{
  "tiles": ["http://[::]:8080/data/v3/{z}/{x}/{y}.pbf"],
  "name": "OpenMapTiles",
  "format": "pbf",
  "basename": "cairo.mbtiles",
  "id": "cairo",
  "center": [31.56178, 30.03461, 10],
  "bounds": [31.21456, 29.74831, 31.90901, 30.32092],
  "vector_layers": [
    {
      "id": "aerodrome_label",
      "fields": {
        "name_int": "String",
        "name:ar": "String",
        "name:nonlatin": "String",
        "name:fa": "String",
        "name:ml": "String",
        "name:ur": "String",
        "name:ru": "String",
        "name:de": "String",
        "name:hi": "String",
        "iata": "String",
        "ele_ft": "Number",
        "name_de": "String",
        "name": "String",
        "name:fr": "String",
        "icao": "String",
        "name:en": "String",
        "name:pnb": "String",
        "class": "String",
        "name:hu": "String",
        "ele": "Number",
        "name:es": "String",
        "name_en": "String",
        "name:latin": "String"
      },
      "minzoom": 8,
      "maxzoom": 15
    },
    {
      "id": "aeroway",
      "fields": { "ref": "String", "class": "String" },
      "minzoom": 10,
      "maxzoom": 15
    },
    {
      "id": "boundary",
      "fields": {
        "disputed": "Number",
        "admin_level": "Number",
        "maritime": "Number"
      },
      "minzoom": 4,
      "maxzoom": 4
    },
    {
      "id": "building",
      "fields": {
        "colour": "String",
        "render_height": "Number",
        "render_min_height": "Number",
        "hide_3d": "Boolean"
      },
      "minzoom": 13,
      "maxzoom": 15
    },
    {
      "id": "housenumber",
      "fields": { "housenumber": "String" },
      "minzoom": 14,
      "maxzoom": 15
    },
    {
      "id": "landcover",
      "fields": { "subclass": "String", "class": "String" },
      "minzoom": 7,
      "maxzoom": 15
    },
    {
      "id": "landuse",
      "fields": { "class": "String" },
      "minzoom": 4,
      "maxzoom": 15
    },
    {
      "id": "mountain_peak",
      "fields": { "rank": "Number", "class": "String" },
      "minzoom": 13,
      "maxzoom": 15
    },
    {
      "id": "park",
      "fields": {
        "name_int": "String",
        "name:de": "String",
        "name:ar": "String",
        "name_de": "String",
        "name:nonlatin": "String",
        "name": "String",
        "rank": "Number",
        "name:fr": "String",
        "name:en": "String",
        "class": "String",
        "name_en": "String",
        "name:latin": "String"
      },
      "minzoom": 6,
      "maxzoom": 15
    },
    {
      "id": "place",
      "fields": {
        "name:fy": "String",
        "name_int": "String",
        "name:oc": "String",
        "name:bs": "String",
        "capital": "Number",
        "name:sk": "String",
        "name:nonlatin": "String",
        "name:ka": "String",
        "name:sl": "String",
        "name:ga": "String",
        "name:sr": "String",
        "name:kk": "String",
        "name:gd": "String",
        "name:sq": "String",
        "name:ca": "String",
        "name:sv": "String",
        "name:kn": "String",
        "name:ko": "String",
        "name_de": "String",
        "rank": "Number",
        "name:ku": "String",
        "name:pnb": "String",
        "name:cs": "String",
        "name:ta": "String",
        "name:latin": "String",
        "name:vi": "String",
        "name:ar": "String",
        "name:ja": "String",
        "name:rm": "String",
        "name:fa": "String",
        "name:az": "String",
        "name:ro": "String",
        "name:nl": "String",
        "name:ru": "String",
        "name:fi": "String",
        "name:be": "String",
        "name:no": "String",
        "name:bg": "String",
        "name": "String",
        "name:fr": "String",
        "name:bn": "String",
        "name:br": "String",
        "name:hy": "String",
        "name:uk": "String",
        "name:id": "String",
        "name:ml": "String",
        "name:ur": "String",
        "name:mk": "String",
        "name:mt": "String",
        "name:el": "String",
        "name:it": "String",
        "name:am": "String",
        "name:en": "String",
        "name:is": "String",
        "name:eo": "String",
        "name:et": "String",
        "name:eu": "String",
        "class": "String",
        "name:zh": "String",
        "name:es": "String",
        "name:th": "String",
        "name:te": "String",
        "name:pa": "String",
        "name:la": "String",
        "name:lb": "String",
        "name:cy": "String",
        "name:pl": "String",
        "name:he": "String",
        "name:da": "String",
        "name:tr": "String",
        "name:pt": "String",
        "name:hi": "String",
        "name:de": "String",
        "name:lt": "String",
        "name:lv": "String",
        "name:hr": "String",
        "name:zh-Hans": "String",
        "name:zh-Hant": "String",
        "name:hu": "String",
        "name_en": "String"
      },
      "minzoom": 2,
      "maxzoom": 15
    },
    {
      "id": "poi",
      "fields": {
        "name_int": "String",
        "name:sk": "String",
        "name:nonlatin": "String",
        "name:sl": "String",
        "name:ga": "String",
        "name:sr": "String",
        "name:kk": "String",
        "name:sq": "String",
        "name:sv": "String",
        "name:kn": "String",
        "name:ko": "String",
        "name_de": "String",
        "rank": "Number",
        "name:pnb": "String",
        "name:cs": "String",
        "name:latin": "String",
        "name:vi": "String",
        "name:ar": "String",
        "name:ja": "String",
        "level": "Number",
        "name:fa": "String",
        "name:ro": "String",
        "name:nl": "String",
        "name:ru": "String",
        "name:fi": "String",
        "name:be": "String",
        "name:bg": "String",
        "name": "String",
        "indoor": "Number",
        "name:fr": "String",
        "name:br": "String",
        "name:hy": "String",
        "name:uk": "String",
        "name:ml": "String",
        "name:ur": "String",
        "layer": "Number",
        "name:mt": "String",
        "name:el": "String",
        "name:it": "String",
        "name:en": "String",
        "name:et": "String",
        "class": "String",
        "name:zh": "String",
        "name:es": "String",
        "name:pa": "String",
        "name:cy": "String",
        "name:pl": "String",
        "name:he": "String",
        "name:da": "String",
        "name:tr": "String",
        "name:pt": "String",
        "name:hi": "String",
        "name:de": "String",
        "name:lt": "String",
        "subclass": "String",
        "name:hr": "String",
        "name:lv": "String",
        "name:hu": "String",
        "name_en": "String"
      },
      "minzoom": 12,
      "maxzoom": 15
    },
    {
      "id": "transportation",
      "fields": {
        "access": "String",
        "brunnel": "String",
        "bicycle": "String",
        "surface": "String",
        "ramp": "Number",
        "toll": "Number",
        "oneway": "Number",
        "layer": "Number",
        "horse": "String",
        "service": "String",
        "subclass": "String",
        "class": "String",
        "foot": "String"
      },
      "minzoom": 4,
      "maxzoom": 15
    },
    {
      "id": "transportation_name",
      "fields": {
        "name_int": "String",
        "name:pa": "String",
        "name:ar": "String",
        "name:uk": "String",
        "name:nonlatin": "String",
        "name:sr": "String",
        "name:ml": "String",
        "layer": "Number",
        "name:ur": "String",
        "name:nl": "String",
        "network": "String",
        "name:sv": "String",
        "name:de": "String",
        "ref": "String",
        "name_de": "String",
        "subclass": "String",
        "ref_length": "Number",
        "name": "String",
        "name:fr": "String",
        "name:en": "String",
        "class": "String",
        "name:es": "String",
        "name_en": "String",
        "name:latin": "String"
      },
      "minzoom": 6,
      "maxzoom": 15
    },
    {
      "id": "water",
      "fields": {
        "brunnel": "String",
        "intermittent": "Number",
        "id": "Number",
        "class": "String"
      },
      "minzoom": 0,
      "maxzoom": 15
    },
    {
      "id": "water_name",
      "fields": {
        "name_int": "String",
        "name:ar": "String",
        "name_de": "String",
        "name:nonlatin": "String",
        "name": "String",
        "intermittent": "Number",
        "name:en": "String",
        "class": "String",
        "name_en": "String",
        "name:latin": "String"
      },
      "minzoom": 15,
      "maxzoom": 15
    },
    {
      "id": "waterway",
      "fields": {
        "name_int": "String",
        "brunnel": "String",
        "intermittent": "Number",
        "class": "String",
        "name:latin": "String"
      },
      "minzoom": 3,
      "maxzoom": 15
    }
  ],
  "description": "A tileset showcasing all layers in OpenMapTiles. https://openmaptiles.org",
  "attribution": "<a href=\"https://www.openmaptiles.org/\" target=\"_blank\">&copy; OpenMapTiles</a> <a href=\"https://www.openstreetmap.org/copyright\" target=\"_blank\">&copy; OpenStreetMap contributors</a>",
  "version": "3.14.0",
  "type": "baselayer",
  "minzoom": 0,
  "maxzoom": 15,
  "compression": "gzip",
  "planetiler:version": "0.7-SNAPSHOT",
  "planetiler:githash": "8affe1e3e853320d0416791a0e48772d934c7710",
  "planetiler:buildtime": "2023-12-26T10:36:03.539Z",
  "planetiler:osm:osmosisreplicationtime": "2023-12-25T21:21:14Z",
  "planetiler:osm:osmosisreplicationseq": "0",
  "planetiler:osm:osmosisreplicationurl": "",
  "tilejson": "2.0.0"
}
